NORAD_CAT_ID,OBJECT_NAME,OBJECT_TYPE,EPOCH,MEAN_MOTION,ECCENTRICITY,INCLINATION,RA_OF_ASC_NODE,ARG_OF_PERICENTER,MEAN_ANOMALY,BSTAR,MEAN_MOTION_DOT,MEAN_MOTION_DDOT,TLE_LINE0,TLE_LINE1,TLE_LINE2,SEMIMAJOR_AXIS,PERIOD,APOGEE,PERIGEE,DECAYED
228,DELTA 1 DEB (YO),DEBRIS,2020-09-09 19:27:56,15.013883499999999,0.0015325,48.4291,86.6374,313.8882,46.0775,2.359800000000001e-05,4.5e-07,0.0,0 DELTA 1 DEB (YO),1   228U 62002C   20253.81107291 +.00000045 +00000-0 +23598-4 0  9993,2   228 048.4291 086.6374 0015325 313.8882 046.0775 15.01388350123891,6940.751,95.911,573.253,551.98,0.0
228,DELTA 1 DEB (YO),DEBRIS,2020-09-09 22:39:36,15.01388431,0.0015327,48.4291,85.9828,314.4911,45.4759,2.3646e-05,4.6e-07,0.0,0 DELTA 1 DEB (YO),1   228U 62002C   20253.94417372  .00000046  00000-0  23646-4 0  9996,2   228  48.4291  85.9828 0015327 314.4911  45.4759 15.01388431148048,6940.751,95.911,573.254,551.9780000000002,0.0
228,DELTA 1 DEB (YO),DEBRIS,2020-09-10 19:25:25,15.01388911,0.0015293,48.4292,81.7272,318.2124,41.7631,2.236e-05,2.9e-07,0.0,0 DELTA 1 DEB (YO),1   228U 62002C   20254.80932860 +.00000029 +00000-0 +22360-4 0  9999,2   228 048.4292 081.7272 0015293 318.2124 041.7631 15.01388911124041,6940.75,95.911,573.229,552.0,0.0
228,DELTA 1 DEB (YO),DEBRIS,2020-09-10 22:37:05,15.01388993,0.0015290999999999998,48.4292,81.0725,318.8097,41.1672,2.2399e-05,2.9e-07,0.0,0 DELTA 1 DEB (YO),1   228U 62002C   20254.94242935 +.00000029 +00000-0 +22399-4 0  9993,2   228 048.4292 081.0725 0015291 318.8097 041.1672 15.01388993124061,6940.749,95.911,573.227,552.001,0.0
228,DELTA 1 DEB (YO),DEBRIS,2020-09-11 19:22:55,15.01389495,0.0015253,48.4293,76.8169,322.5069,37.479,2.2136e-05,2.6e-07,0.0,0 DELTA 1 DEB (YO),1   228U 62002C   20255.80758395 +.00000026 +00000-0 +22136-4 0  9997,2   228 048.4293 076.8169 0015253 322.5069 037.4790 15.01389495124196,6940.748000000001,95.911,573.1990000000002,552.026,0.0
228,DELTA 1 DEB (YO),DEBRIS,2020-09-12 04:57:54,15.0138975,0.0015244999999999998,48.4293,74.8528,324.249,35.7412,2.243e-05,3e-07,0.0,0 DELTA 1 DEB (YO),1   228U 62002C   20256.20688602  .00000030  00000-0  22430-4 0  9997,2   228  48.4293  74.8528 0015245 324.2490  35.7412 15.01389750148384,6940.7469999999985,95.911,573.193,552.031,0.0
228,DELTA 1 DEB (YO),DEBRIS,2020-09-12 16:08:44,15.01390001,0.0015216,48.4294,72.5613,326.2295,33.7659,2.2726e-05,3.4e-07,0.0,0 DELTA 1 DEB (YO),1   228U 62002C   20256.67273841 +.00000034 +00000-0 +22726-4 0  9995,2   228 048.4294 072.5613 0015216 326.2295 033.7659 15.01390001124328,6940.746,95.911,573.172,552.05,0.0
228,DELTA 1 DEB (YO),DEBRIS,2020-09-13 04:55:24,15.013902900000001,0.0015210999999999998,48.4295,69.9426,328.5864,31.415,2.3055e-05,3.8e-07,0.0,0 DELTA 1 DEB (YO),1   228U 62002C   20257.20514117 +.00000038 +00000-0 +23055-4 0  9999,2   228 048.4295 069.9426 0015211 328.5864 031.4150 15.01390290124403,6940.745,95.911,573.168,552.053,0.0
228,DELTA 1 DEB (YO),DEBRIS,2020-09-13 20:53:43,15.01390714,0.0015174000000000001,48.4295,66.6691,331.4686,28.5406,2.4e-05,5e-07,0.0,0 DELTA 1 DEB (YO),1   228U 62002C   20257.87064444 +.00000050 +00000-0 +24000-4 0  9990,2   228 048.4295 066.6691 0015174 331.4686 028.5406 15.01390714124507,6940.744000000002,95.911,573.141,552.077,0.0
228,DELTA 1 DEB (YO),DEBRIS,2020-09-14 16:03:43,15.01391298,0.0015138,48.4297,62.74100000000001,334.9293,25.0895,2.4589e-05,5.8e-07,0.0,0 DELTA 1 DEB (YO),1   228U 62002C   20258.66924801 +.00000058 +00000-0 +24589-4 0  9990,2   228 048.4297 062.7410 0015138 334.9293 025.0895 15.01391298148752,6940.7419999999975,95.911,573.114,552.1,0.0
228,DELTA 1 DEB (YO),DEBRIS,2020-09-15 11:13:42,15.01391766,0.001511,48.4298,58.8128,338.4425,21.586,2.3905999999999998e-05,4.9e-07,0.0,0 DELTA 1 DEB (YO),1   228U 62002C   20259.46785144 +.00000049 +00000-0 +23906-4 0  9996,2   228 048.4298 058.8128 0015110 338.4425 021.5860 15.01391766124747,6940.741,95.911,573.0930000000002,552.118,0.0
228,DELTA 1 DEB (YO),DEBRIS,2020-09-15 17:37:02,15.01391948,0.0015094000000000002,48.4299,57.5034,339.6127,20.4193,2.3825e-05,4.8e-07,0.0,0 DELTA 1 DEB (YO),1   228U 62002C   20259.73405250 +.00000048 +00000-0 +23825-4 0  9992,2   228 048.4299 057.5034 0015094 339.6127 020.4193 15.01391948124786,6940.74,95.911,573.082,552.129,0.0
228,DELTA 1 DEB (YO),DEBRIS,2020-09-16 11:11:11,15.01392352,0.0015065,48.43,53.9027,342.8119,17.2293,2.323800000000001e-05,4e-07,0.0,0 DELTA 1 DEB (YO),1   228U 62002C   20260.46610537 +.00000040 +00000-0 +23238-4 0  9990,2   228 048.4300 053.9027 0015065 342.8119 017.2293 15.01392352124893,6940.739000000001,95.911,573.06,552.148,0.0
228,DELTA 1 DEB (YO),DEBRIS,2020-09-17 03:09:30,15.01392832,0.001504,48.4301,50.6294,345.73900000000015,14.3107,2.395e-05,5e-07,0.0,0 DELTA 1 DEB (YO),1   228U 62002C   20261.13160773  .00000050  00000-0  23950-4 0  9999,2   228  48.4301  50.6294 0015040 345.7390  14.3107 15.01392832149128,6940.736999999999,95.911,573.0409999999998,552.164,0.0
228,DELTA 1 DEB (YO),DEBRIS,2020-09-17 20:43:40,15.01393251,0.0015,48.4301,47.0286,348.9282,11.130999999999998,2.433800000000001e-05,5.5e-07,0.0,0 DELTA 1 DEB (YO),1   228U 62002C   20261.86366031 +.00000055 +00000-0 +24338-4 0  9990,2   228 048.4301 047.0286 0015000 348.9282 011.1310 15.01393251125109,6940.736,95.911,573.012,552.19,0.0
228,DELTA 1 DEB (YO),DEBRIS,2020-09-18 03:07:00,15.01393416,0.0014997,48.4302,45.7192,350.1216,9.9411,2.4238e-05,5.3e-07,0.0,0 DELTA 1 DEB (YO),1   228U 62002C   20262.12986119 +.00000053 +00000-0 +24238-4 0  9992,2   228 048.4302 045.7192 0014997 350.1216 009.9411 15.01393416125141,6940.736,95.911,573.01,552.192,0.0
228,DELTA 1 DEB (YO),DEBRIS,2020-09-18 19:05:19,15.01393914,0.0014959,48.4303,42.4458,353.0643,7.0072,2.5444000000000002e-05,6.9e-07,0.0,0 DELTA 1 DEB (YO),1   228U 62002C   20262.79536326 +.00000069 +00000-0 +25444-4 0  9993,2   228 048.4303 042.4458 0014959 353.0643 007.0072 15.01393914125241,6940.734,95.911,572.982,552.216,0.0
228,DELTA 1 DEB (YO),DEBRIS,2020-09-19 12:39:28,15.0139421,0.0014919,48.4303,38.845,356.2878,3.7932,2.262300000000001e-05,3.2e-07,0.0,0 DELTA 1 DEB (YO),1   228U 62002C   20263.52741532 +.00000032 +00000-0 +22623-4 0  9998,2   228 048.4303 038.8450 0014919 356.2878 003.7932 15.01394210125353,6940.733,95.911,572.953,552.243,0.0
228,DELTA 1 DEB (YO),DEBRIS,2020-09-19 19:02:48,15.01394329,0.0014904999999999999,48.4304,37.5357,357.4637,2.6209,2.2245e-05,2.7e-07,0.0,0 DELTA 1 DEB (YO),1   228U 62002C   20263.79361608 +.00000027 +00000-0 +22245-4 0  9993,2   228 048.4304 037.5357 0014905 357.4637 002.6209 15.01394329125397,6940.733,95.911,572.943,552.253,0.0
228,DELTA 1 DEB (YO),DEBRIS,2020-09-20 09:25:17,15.01394692,0.0014877,48.4304,34.5895,0.095,359.9974,2.1802e-05,2.2e-07,0.0,0 DELTA 1 DEB (YO),1   228U 62002C   20264.39256747  .00000022  00000-0  21802-4 0  9990,2   228  48.4304  34.5895 0014877   0.0950 359.9974 15.01394692149619,6940.732,95.911,572.922,552.271,0.0
228,DELTA 1 DEB (YO),DEBRIS,2020-09-20 12:36:57,15.01394712,0.0014865,48.4305,33.9348,0.6977,359.3965,2.0935999999999997e-05,1e-07,0.0,0 DELTA 1 DEB (YO),1   228U 62002C   20264.52566780 +.00000010 +00000-0 +20936-4 0  9990,2   228 048.4305 033.9348 0014865 000.6977 359.3965 15.01394712125507,6940.732,95.911,572.914,552.279,0.0
228,DELTA 1 DEB (YO),DEBRIS,2020-09-20 19:00:17,15.01394858,0.0014856,48.4305,32.6255,1.8825,358.2152,2.1093000000000006e-05,1.2e-07,0.0,0 DELTA 1 DEB (YO),1   228U 62002C   20264.79186843 +.00000012 +00000-0 +21093-4 0  9994,2   228 048.4305 032.6255 0014856 001.8825 358.2152 15.01394858125546,6940.731,95.911,572.9069999999998,552.285,0.0
228,DELTA 1 DEB (YO),DEBRIS,2020-09-21 12:34:26,15.01395207,0.0014815999999999998,48.4306,29.0247,5.1151,354.9921,2.0435e-05,4e-08,0.0,0 DELTA 1 DEB (YO),1   228U 62002C   20265.52391994 +.00000004 +00000-0 +20435-4 0  9991,2   228 048.4306 029.0247 0014816 005.1151 354.9921 15.01395207125651,6940.73,95.911,572.879,552.312,0.0
228,DELTA 1 DEB (YO),DEBRIS,2020-09-21 17:21:56,15.01395308,0.0014811,48.4307,28.0428,6.0064,354.1035,2.0693000000000007e-05,7e-08,0.0,0 DELTA 1 DEB (YO),1   228U 62002C   20265.72357037  .00000007  00000-0  20693-4 0  9992,2   228  48.4307  28.0428 0014811   6.0064 354.1035 15.01395308149814,6940.73,95.911,572.875,552.315,0.0
228,DELTA 1 DEB (YO),DEBRIS,2020-09-21 18:57:46,15.01395335,0.0014808,48.4307,27.7155,6.3065,353.8042,2.0597e-05,6e-08,0.0,0 DELTA 1 DEB (YO),1   228U 62002C   20265.79012051 +.00000006 +00000-0 +20597-4 0  9995,2   228 048.4307 027.7155 0014808 006.3065 353.8042 15.01395335125691,6940.73,95.911,572.873,552.317,0.0
228,DELTA 1 DEB (YO),DEBRIS,2020-09-22 12:31:55,15.01395759,0.001477,48.4308,24.1147,9.5611,350.5591,2.1442e-05,1.7e-07,0.0,0 DELTA 1 DEB (YO),1   228U 62002C   20266.52217183 +.00000017 +00000-0 +21442-4 0  9992,2   228 048.4308 024.1147 0014770 009.5611 350.5591 15.01395759125800,6940.728,95.911,572.845,552.342,0.0
228,DELTA 1 DEB (YO),DEBRIS,2020-09-22 18:55:15,15.01396104,0.0014765999999999998,48.4308,22.8054,10.7461,349.3776,2.453e-05,5.7e-07,0.0,0 DELTA 1 DEB (YO),1   228U 62002C   20266.78837227 +.00000057 +00000-0 +24530-4 0  9992,2   228 048.4308 022.8054 0014766 010.7461 349.3776 15.01396104149974,6940.727,95.911,572.841,552.344,0.0
228,DELTA 1 DEB (YO),DEBRIS,2020-09-23 14:05:14,15.01396689,0.0014724,48.4309,18.8773,14.3304,345.8034,2.6084e-05,7.8e-07,0.0,0 DELTA 1 DEB (YO),1   228U 62002C   20267.58697329 +.00000078 +00000-0 +26084-4 0  9997,2   228 048.4309 018.8773 0014724 014.3304 345.8034 15.01396689125967,6940.726,95.911,572.81,552.371,0.0
228,DELTA 1 DEB (YO),DEBRIS,2020-09-24 14:02:43,15.01397765,0.0014677,48.4309,13.9674,18.7903,341.3559,3.0694e-05,1.38e-06,0.0,0 DELTA 1 DEB (YO),1   228U 62002C   20268.58522377 +.00000138 +00000-0 +30694-4 0  9997,2   228 048.4309 013.9674 0014677 018.7903 341.3559 15.01397765126110,6940.722,95.911,572.774,552.4,0.0
